ONEWEB-0564             
1 55801U 23029F   26021.46950750  .00000080  00000+0  16548-3 0  9996
2 55801  87.9220 303.7390 0002088  75.8229 284.3136 13.20773606141788
ONEWEB-0638             
1 55802U 23029G   26021.33351363  .00000169  00000+0  42059-3 0  9992
2 55802  87.9020 319.0334 0002082  67.9728 292.1623 13.14503640140100
ONEWEB-0639             
1 55803U 23029H   26021.32641356 -.00000079  00000+0 -22962-3 0  9999
2 55803  87.9233 334.2053 0000799  54.9057 305.2151 13.19726032139532
ONEWEB-0640             
1 55804U 23029J   26021.34303352  .00000329  00000+0  85210-3 0  9994
2 55804  87.9023 319.0208 0001916  53.3640 306.7666 13.14503165140125
ONEWEB-0641             
1 55805U 23029K   26021.39750402  .00000066  00000+0  13264-3 0  9990
2 55805  87.9244 334.1752 0001602  78.7140 281.4172 13.19725732139558
ONEWEB-0642             
1 55806U 23029L   26021.39275926  .00000056  00000+0  10691-3 0  9994
2 55806  87.9232 334.1946 0000892  79.6832 280.4401 13.19726383139545
ONEWEB-0643             
1 55807U 23029M   26021.31288287 -.00000129  00000+0 -38362-3 0  9999
2 55807  87.9026 319.0134 0001073  88.3573 271.7680 13.14504312140094
ONEWEB-0644             
1 55808U 23029N   26021.38802135  .00000120  00000+0  26709-3 0  9992
2 55808  87.9228 334.2043 0001385  81.5748 278.5541 13.19725027139544
ONEWEB-0645             
1 55809U 23029P   26021.41013126  .00000136  00000+0  30861-3 0  9992
2 55809  87.9224 334.1924 0001399  62.7937 297.3339 13.19727616139544
ONEWEB-0646             
1 55810U 23029Q   26021.35168856  .00000213  00000+0  50011-3 0  9993
2 55810  87.9239 334.1998 0001468  80.0543 280.0755 13.19727431139520
ONEWEB-0648             
1 55811U 23029R   26021.50952080  .00000275  00000+0  70795-3 0  9990
2 55811  87.9030 318.9373 0001074  44.1083 316.0133 13.14504287140125
ONEWEB-0649             
1 55812U 23029S   26021.30115102  .00000108  00000+0  23832-3 0  9990
2 55812  87.9237 334.2067 0001412  70.9296 289.1989 13.19725806139556
ONEWEB-0650             
1 55813U 23029T   26021.29640542  .00000140  00000+0  31710-3 0  9990
2 55813  87.9235 334.2119 0001294  75.8482 284.2794 13.19727244139527
ONEWEB-0652             
1 55814U 23029U   26021.33827132  .00000255  00000+0  65290-3 0  9995
2 55814  87.9022 318.9897 0001872  79.7395 280.3945 13.14503514140076
ONEWEB-0653             
1 55815U 23029V   26021.32241037 -.00000018  00000+0 -83009-4 0  9997
2 55815  87.9024 318.9823 0001877  74.3082 285.8254 13.14503568140103
ONEWEB-0654             
1 55816U 23029W   26021.31764855 -.00000013  00000+0 -68533-4 0  9995
2 55816  87.9025 318.9831 0002088  79.5432 280.5933 13.14504328140128
ONEWEB-0656             
1 55817U 23029X   26020.78138075  .00000023  00000+0  25509-4 0  9990
2 55817  87.9233 303.8375 0002115  79.2404 280.8967 13.20771831141698
