[{"OBJECT_NAME":"ONEWEB-0564","OBJECT_ID":"2023-029F","EPOCH":"2026-01-21T11:16:05.448000","MEAN_MOTION":13.20773606,"ECCENTRICITY":0.0002088,"INCLINATION":87.922,"RA_OF_ASC_NODE":303.739,"ARG_OF_PERICENTER":75.8229,"MEAN_ANOMALY":284.3136,"EPHEMERIS_TYPE":0,"CLASSIFICATION_TYPE":"U","NORAD_CAT_ID":55801,"ELEMENT_SET_NO":999,"REV_AT_EPOCH":14178,"BSTAR":0.00016548,"MEAN_MOTION_DOT":8.0e-7,"MEAN_MOTION_DDOT":0},{"OBJECT_NAME":"ONEWEB-0638","OBJECT_ID":"2023-029G","EPOCH":"2026-01-21T08:00:15.577632","MEAN_MOTION":13.1450364,"ECCENTRICITY":0.0002082,"INCLINATION":87.902,"RA_OF_ASC_NODE":319.0334,"ARG_OF_PERICENTER":67.9728,"MEAN_ANOMALY":292.1623,"EPHEMERIS_TYPE":0,"CLASSIFICATION_TYPE":"U","NORAD_CAT_ID":55802,"ELEMENT_SET_NO":999,"REV_AT_EPOCH":14010,"BSTAR":0.00042059,"MEAN_MOTION_DOT":1.69e-6,"MEAN_MOTION_DDOT":0},{"OBJECT_NAME":"ONEWEB-0639","OBJECT_ID":"2023-029H","EPOCH":"2026-01-21T07:50:02.131584","MEAN_MOTION":13.19726032,"ECCENTRICITY":7.99e-5,"INCLINATION":87.9233,"RA_OF_ASC_NODE":334.2053,"ARG_OF_PERICENTER":54.9057,"MEAN_ANOMALY":305.2151,"EPHEMERIS_TYPE":0,"CLASSIFICATION_TYPE":"U","NORAD_CAT_ID":55803,"ELEMENT_SET_NO":999,"REV_AT_EPOCH":13953,"BSTAR":-0.00022962,"MEAN_MOTION_DOT":-7.9e-7,"MEAN_MOTION_DDOT":0},{"OBJECT_NAME":"ONEWEB-0640","OBJECT_ID":"2023-029J","EPOCH":"2026-01-21T08:13:58.096128","MEAN_MOTION":13.14503165,"ECCENTRICITY":0.0001916,"INCLINATION":87.9023,"RA_OF_ASC_NODE":319.0208,"ARG_OF_PERICENTER":53.364,"MEAN_ANOMALY":306.7666,"EPHEMERIS_TYPE":0,"CLASSIFICATION_TYPE":"U","NORAD_CAT_ID":55804,"ELEMENT_SET_NO":999,"REV_AT_EPOCH":14012,"BSTAR":0.0008521,"MEAN_MOTION_DOT":3.29e-6,"MEAN_MOTION_DDOT":0},{"OBJECT_NAME":"ONEWEB-0641","OBJECT_ID":"2023-029K","EPOCH":"2026-01-21T09:32:24.347328","MEAN_MOTION":13.19725732,"ECCENTRICITY":0.0001602,"INCLINATION":87.9244,"RA_OF_ASC_NODE":334.1752,"ARG_OF_PERICENTER":78.714,"MEAN_ANOMALY":281.4172,"EPHEMERIS_TYPE":0,"CLASSIFICATION_TYPE":"U","NORAD_CAT_ID":55805,"ELEMENT_SET_NO":999,"REV_AT_EPOCH":13955,"BSTAR":0.00013264,"MEAN_MOTION_DOT":6.6e-7,"MEAN_MOTION_DDOT":0},{"OBJECT_NAME":"ONEWEB-0642","OBJECT_ID":"2023-029L","EPOCH":"2026-01-21T09:25:34.400064","MEAN_MOTION":13.19726383,"ECCENTRICITY":8.92e-5,"INCLINATION":87.9232,"RA_OF_ASC_NODE":334.1946,"ARG_OF_PERICENTER":79.6832,"MEAN_ANOMALY":280.4401,"EPHEMERIS_TYPE":0,"CLASSIFICATION_TYPE":"U","NORAD_CAT_ID":55806,"ELEMENT_SET_NO":999,"REV_AT_EPOCH":13954,"BSTAR":0.00010691,"MEAN_MOTION_DOT":5.6e-7,"MEAN_MOTION_DDOT":0},{"OBJECT_NAME":"ONEWEB-0643","OBJECT_ID":"2023-029M","EPOCH":"2026-01-21T07:30:33.079968","MEAN_MOTION":13.14504312,"ECCENTRICITY":0.0001073,"INCLINATION":87.9026,"RA_OF_ASC_NODE":319.0134,"ARG_OF_PERICENTER":88.3573,"MEAN_ANOMALY":271.768,"EPHEMERIS_TYPE":0,"CLASSIFICATION_TYPE":"U","NORAD_CAT_ID":55807,"ELEMENT_SET_NO":999,"REV_AT_EPOCH":14009,"BSTAR":-0.00038362,"MEAN_MOTION_DOT":-1.29e-6,"MEAN_MOTION_DDOT":0},{"OBJECT_NAME":"ONEWEB-0644","OBJECT_ID":"2023-029N","EPOCH":"2026-01-21T09:18:45.044640","MEAN_MOTION":13.19725027,"ECCENTRICITY":0.0001385,"INCLINATION":87.9228,"RA_OF_ASC_NODE":334.2043,"ARG_OF_PERICENTER":81.5748,"MEAN_ANOMALY":278.5541,"EPHEMERIS_TYPE":0,"CLASSIFICATION_TYPE":"U","NORAD_CAT_ID":55808,"ELEMENT_SET_NO":999,"REV_AT_EPOCH":13954,"BSTAR":0.00026709,"MEAN_MOTION_DOT":1.2e-6,"MEAN_MOTION_DDOT":0},{"OBJECT_NAME":"ONEWEB-0645","OBJECT_ID":"2023-029P","EPOCH":"2026-01-21T09:50:35.340864","MEAN_MOTION":13.19727616,"ECCENTRICITY":0.0001399,"INCLINATION":87.9224,"RA_OF_ASC_NODE":334.1924,"ARG_OF_PERICENTER":62.7937,"MEAN_ANOMALY":297.3339,"EPHEMERIS_TYPE":0,"CLASSIFICATION_TYPE":"U","NORAD_CAT_ID":55809,"ELEMENT_SET_NO":999,"REV_AT_EPOCH":13954,"BSTAR":0.00030861,"MEAN_MOTION_DOT":1.36e-6,"MEAN_MOTION_DDOT":0},{"OBJECT_NAME":"ONEWEB-0646","OBJECT_ID":"2023-029Q","EPOCH":"2026-01-21T08:26:25.891584","MEAN_MOTION":13.19727431,"ECCENTRICITY":0.0001468,"INCLINATION":87.9239,"RA_OF_ASC_NODE":334.1998,"ARG_OF_PERICENTER":80.0543,"MEAN_ANOMALY":280.0755,"EPHEMERIS_TYPE":0,"CLASSIFICATION_TYPE":"U","NORAD_CAT_ID":55810,"ELEMENT_SET_NO":999,"REV_AT_EPOCH":13952,"BSTAR":0.00050011,"MEAN_MOTION_DOT":2.13e-6,"MEAN_MOTION_DDOT":0},{"OBJECT_NAME":"ONEWEB-0648","OBJECT_ID":"2023-029R","EPOCH":"2026-01-21T12:13:42.597120","MEAN_MOTION":13.14504287,"ECCENTRICITY":0.0001074,"INCLINATION":87.903,"RA_OF_ASC_NODE":318.9373,"ARG_OF_PERICENTER":44.1083,"MEAN_ANOMALY":316.0133,"EPHEMERIS_TYPE":0,"CLASSIFICATION_TYPE":"U","NORAD_CAT_ID":55811,"ELEMENT_SET_NO":999,"REV_AT_EPOCH":14012,"BSTAR":0.00070795,"MEAN_MOTION_DOT":2.75e-6,"MEAN_MOTION_DDOT":0},{"OBJECT_NAME":"ONEWEB-0649","OBJECT_ID":"2023-029S","EPOCH":"2026-01-21T07:13:39.448128","MEAN_MOTION":13.19725806,"ECCENTRICITY":0.0001412,"INCLINATION":87.9237,"RA_OF_ASC_NODE":334.2067,"ARG_OF_PERICENTER":70.9296,"MEAN_ANOMALY":289.1989,"EPHEMERIS_TYPE":0,"CLASSIFICATION_TYPE":"U","NORAD_CAT_ID":55812,"ELEMENT_SET_NO":999,"REV_AT_EPOCH":13955,"BSTAR":0.00023832,"MEAN_MOTION_DOT":1.08e-6,"MEAN_MOTION_DDOT":0},{"OBJECT_NAME":"ONEWEB-0650","OBJECT_ID":"2023-029T","EPOCH":"2026-01-21T07:06:49.428288","MEAN_MOTION":13.19727244,"ECCENTRICITY":0.0001294,"INCLINATION":87.9235,"RA_OF_ASC_NODE":334.2119,"ARG_OF_PERICENTER":75.8482,"MEAN_ANOMALY":284.2794,"EPHEMERIS_TYPE":0,"CLASSIFICATION_TYPE":"U","NORAD_CAT_ID":55813,"ELEMENT_SET_NO":999,"REV_AT_EPOCH":13952,"BSTAR":0.0003171,"MEAN_MOTION_DOT":1.4e-6,"MEAN_MOTION_DDOT":0},{"OBJECT_NAME":"ONEWEB-0652","OBJECT_ID":"2023-029U","EPOCH":"2026-01-21T08:07:06.642048","MEAN_MOTION":13.14503514,"ECCENTRICITY":0.0001872,"INCLINATION":87.9022,"RA_OF_ASC_NODE":318.9897,"ARG_OF_PERICENTER":79.7395,"MEAN_ANOMALY":280.3945,"EPHEMERIS_TYPE":0,"CLASSIFICATION_TYPE":"U","NORAD_CAT_ID":55814,"ELEMENT_SET_NO":999,"REV_AT_EPOCH":14007,"BSTAR":0.0006529,"MEAN_MOTION_DOT":2.55e-6,"MEAN_MOTION_DDOT":0},{"OBJECT_NAME":"ONEWEB-0653","OBJECT_ID":"2023-029V","EPOCH":"2026-01-21T07:44:16.255968","MEAN_MOTION":13.14503568,"ECCENTRICITY":0.0001877,"INCLINATION":87.9024,"RA_OF_ASC_NODE":318.9823,"ARG_OF_PERICENTER":74.3082,"MEAN_ANOMALY":285.8254,"EPHEMERIS_TYPE":0,"CLASSIFICATION_TYPE":"U","NORAD_CAT_ID":55815,"ELEMENT_SET_NO":999,"REV_AT_EPOCH":14010,"BSTAR":-8.3009e-5,"MEAN_MOTION_DOT":-1.8e-7,"MEAN_MOTION_DDOT":0},{"OBJECT_NAME":"ONEWEB-0654","OBJECT_ID":"2023-029W","EPOCH":"2026-01-21T07:37:24.834720","MEAN_MOTION":13.14504328,"ECCENTRICITY":0.0002088,"INCLINATION":87.9025,"RA_OF_ASC_NODE":318.9831,"ARG_OF_PERICENTER":79.5432,"MEAN_ANOMALY":280.5933,"EPHEMERIS_TYPE":0,"CLASSIFICATION_TYPE":"U","NORAD_CAT_ID":55816,"ELEMENT_SET_NO":999,"REV_AT_EPOCH":14012,"BSTAR":-6.8533e-5,"MEAN_MOTION_DOT":-1.3e-7,"MEAN_MOTION_DDOT":0},{"OBJECT_NAME":"ONEWEB-0656","OBJECT_ID":"2023-029X","EPOCH":"2026-01-20T18:45:11.296800","MEAN_MOTION":13.20771831,"ECCENTRICITY":0.00021153,"INCLINATION":87.9233,"RA_OF_ASC_NODE":303.8375,"ARG_OF_PERICENTER":79.2404,"MEAN_ANOMALY":280.8967,"EPHEMERIS_TYPE":0,"CLASSIFICATION_TYPE":"U","NORAD_CAT_ID":55817,"ELEMENT_SET_NO":999,"REV_AT_EPOCH":14169,"BSTAR":2.5509265e-5,"MEAN_MOTION_DOT":2.3e-7,"MEAN_MOTION_DDOT":0}]
